#aV2015  3  1  0  0  0.00000000     288 DD+AD WGS84 FIT  NGA
## 1834      0.00000000   300.00000000 57082 0.0000000000000
+   31     1  2  3  4  5  6  7  8  9 10 11 12 13 14 15 16 17
+         18 19 20 21 22 23 24 25 27 28 29 30 31 32  0  0  0
+          0  0  0  0  0  0  0  0  0  0  0  0  0  0  0  0  0
+          0  0  0  0  0  0  0  0  0  0  0  0  0  0  0  0  0
+          0  0  0  0  0  0  0  0  0  0  0  0  0  0  0  0  0
++         2  2  2  2  2  2  2  2  2  2  2  2  2  2  2  2  2
++         2  2  2  2  2  2  2  2  2  2  2  2  2  2  0  0  0
++         0  0  0  0  0  0  0  0  0  0  0  0  0  0  0  0  0
++         0  0  0  0  0  0  0  0  0  0  0  0  0  0  0  0  0
++         0  0  0  0  0  0  0  0  0  0  0  0  0  0  0  0  0
%c cc cc ccc ccc cccc cccc cccc cccc ccccc ccccc ccccc ccccc
%c cc cc ccc ccc cccc cccc cccc cccc ccccc ccccc ccccc ccccc
%f  0.0000000  0.000000000  0.00000000000  0.000000000000000
%f  0.0000000  0.000000000  0.00000000000  0.000000000000000
%i    0    0    0    0      0      0      0      0         0
%i    0    0    0    0      0      0      0      0         0
/*      NGA, ST. LOUIS,MO.                                  
/*   EPHEMERIS COMPUTED FROM  1 DAYS OF DATA                
/*   EPOCHA SMOOTHER                                       
/* CCCCCCCCCCCCCCCCCCCCCCCCCCCCCCCCCCCCCCCCCCCCCCCCCCCCCCCCC
*  2015  3  1 11 45  0.00000000
P  1   -101.869341  15914.117968 -21287.090668     -8.463885                    
V  1 -25411.324858   8972.880287   7016.170569      0.004295                    
P  2  20388.415676 -14851.219404   7861.853512    550.888108                    
V  2  10284.787093   -521.339204 -29412.611163      0.023006                    
P  3   9005.709686  20283.343753 -14553.973995    234.295737                    
V  3 -15797.111213  -9890.419791 -23590.084264      0.189313                    
P  4 -10302.155628  17668.005542 -17121.037414     -8.146015                    
V  4 -20566.726898   5971.296252  19152.307465     -0.008406                    
P  5  10284.259299 -11612.044793  21511.757875   -272.669855                    
V  5  21538.636859  17076.563440   -900.437884      0.050248                    
P  6  25280.138074  -5262.203605  -6194.549778     96.009200                    
V  6  -6346.213556   5357.900637 -30481.364488      0.109116                    
P  7  14102.496466   9780.597280  20464.723568    444.203719                    
V  7 -23870.423904   9378.406935  11673.774507      0.030644                    
P  8 -22811.703054  10656.520636   7565.147069     18.097072                    
V  8  -9690.448140    233.447453 -30947.026011      0.003806                    
P  9   8793.796170  18969.505692  16361.444110   -100.894399                    
V  9  -4995.385817  20292.292678 -20839.705076     -0.106566                    
P 10  22371.474854   6127.133115  12929.006855   -165.407707                    
V 10  11492.872810  12674.376439 -24732.328922     -0.014948                    
P 11  -4096.836805  20869.967096 -16353.195791   -561.204994                    
V 11 -17241.893076  10809.122966  18865.108867     -0.026786                    
P 12  -5804.699907 -19854.241993 -16873.815322    273.138218                    
V 12  16580.428966  13115.833311 -21026.047066      0.030102                    
P 13  12746.896127 -20999.552193  10102.745353    -92.639667                    
V 13  -1381.845183  13081.208949  28387.481162     -0.034404                    
P 14 -15306.126248    477.384607 -21457.916217     82.983923                    
V 14   5831.077026 -27174.658061  -4856.783711     -0.034660                    
P 15   2855.463260 -26229.598890     38.187939   -235.104457                    
V 15   3919.148792    575.292964  31346.468515     -0.022239                    
P 16 -10600.565170  10008.979706  22147.642787   -152.067382                    
V 16 -20885.951870 -18920.036184  -1077.130297      0.033832                    
P 17  14677.203660   2310.050197 -21721.120713   -158.537038                    
V 17  -5363.812078  27742.288294   -872.819855     -0.020331                    
P 18 -21500.578458 -15825.363970   -841.067278    383.093043                    
V 18    962.930882  -3901.887434  30730.336626      0.027903                    
P 19  -8374.523896  24733.887816   3032.596146   -502.335410                    
V 19  -1870.749403  -4714.708735  31913.489251     -0.014115                    
P 20  23636.994659   8214.849642   8921.958463    294.905707                    
V 20   7548.896591   9457.753606 -28040.982174      0.041021                    
P 21 -18420.835057  -7329.382148  18536.233149   -421.772130                    
V 21  19920.048129  -9723.477936  16184.132020     -0.039791                    
P 22 -22843.686877  -6254.453797 -11971.041336    323.618746                    
V 22 -10322.609306 -12091.739920  25369.276318      0.042607                    
P 23   1977.889316  24990.834282   8218.672667    -92.091655                    
V 23  -4878.582141   9748.536193 -29362.528705     -0.026040                    
P 24   3347.861207 -16842.480712 -20255.928723    -44.237811                    
V 24  24254.446353  -8611.247461  11326.226385     -0.006618                    
P 25 -16942.808417 -19435.205985  -6809.418014     -7.428913                    
V 25   7881.822249   3724.236897 -30461.322920     -0.029653                    
P 27 -12253.678486  19338.447891  13371.632677     54.819396                    
V 27    387.001841 -17155.961995  25244.682336      0.026591                    
P 28  21710.839306  12282.137446  -8629.482747    422.890060                    
V 28   7407.674282   9349.135093  29718.142154      0.025763                    
P 29  -5202.159682 -21973.967720  14047.738265    595.063822                    
V 29   5443.810538 -16992.137736 -24575.250578      0.023159                    
P 30  22290.230620   3547.146757  14033.954384    -82.536859                    
V 30 -16403.970849   7309.162436  24143.936196      0.019719                    
P 31 -25657.717348   6846.284087  -3061.699876    322.197310                    
V 31   3107.992292  -3249.847379 -31557.657189     -0.009021                    
P 32  -5395.066602  15605.310158 -20905.685348   -212.063802                    
V 32 -19606.092410 -17800.304618  -7690.575369      0.092201                    
EOF
